HST                     
1 20580U 90037B   26101.49678816  .00006116  00000+0  19678-3 0  9990
2 20580  28.4727 176.1109 0002351 124.7983 235.2834 15.30022712778346
POLAR                   
1 23802U 96013A   26100.25727134  .00000131  00000+0  00000+0 0  9997
2 23802  79.7870 227.8350 6402106 211.4005  85.8267  1.29845727143979
SWAS                    
1 25560U 98071A   26101.28075286  .00003447  00000+0  22303-3 0  9991
2 25560  69.8970  39.9954 0006479 328.4227  31.6547 15.09162673487175
CXO                     
1 25867U 99040B   26103.26452838  .00000981  00000+0  00000+0 0  9996
2 25867  55.0979 118.6093 7944075 310.5417   0.3347  0.37801723 17084
XMM-NEWTON              
1 25989U 99066A   26101.53155294  .00000149  00000+0  00000+0 0  9999
2 25989  64.8276 283.8431 4697464  66.0816   0.0953  0.50128663 22679
TERRA                   
1 25994U 99068A   26101.53420287  .00000320  00000+0  74166-4 0  9994
2 25994  97.9527 153.7028 0003655  85.0319  51.4110 14.61051058399870
CLUSTER II-FM7 (SAMBA)  
1 26410U 00041A   26103.42847287  .00002693  00000+0  00000+0 0  9990
2 26410 149.4965  39.9054 8971645 256.3507   0.6187  0.44801462 20015
CLUSTER II-FM8 (TANGO)  
1 26464U 00045B   26100.86750016  .00003246  00000+0  00000+0 0  9996
2 26464 149.7573  40.4938 8972572 256.7727   0.6891  0.44408156 19998
ODIN                    
1 26702U 01007A   26101.49886850  .00042987  00000+0  49171-3 0  9997
2 26702  97.4005 138.9593 0003839  71.7167 288.4508 15.62035020378955
TIMED                   
1 26998U 01055B   26101.09953411  .00001224  00000+0  11511-3 0  9997
2 26998  74.0700  10.0844 0002419 233.2601 126.8361 14.95140694320795
CORIOLIS                
1 27640U 03001A   26101.46644625  .00000113  00000+0  73726-4 0  9993
2 27640  98.7152 109.3648 0014841  48.6049 311.6400 14.19925940204750
SORCE                   
1 27651U 03004A   26101.51812884  .00002675  00000+0  20376-3 0  9995
2 27651  39.9908 281.9422 0018505 292.1101  67.7729 15.03355537261862
MOST                    
1 27843U 03031D   26101.47489182  .00000069  00000+0  51533-4 0  9999
2 27843  98.7073 110.1262 0011001  85.8857 274.3577 14.21308583181232
SCISAT 1                
1 27858U 03036A   26101.50468245  .00000477  00000+0  65718-4 0  9994
2 27858  73.9290 303.8271 0006759  13.9989 346.1373 14.81372108221571
SWIFT                   
1 28485U 04047A   26101.33194514  .00037759  00000+0  39530-3 0  9995
2 28485  20.5545 338.2101 0002688  85.3576 274.7176 15.62510453176376
HINODE (SOLAR-B)        
1 29479U 06041A   26101.27764704  .00000518  00000+0  97509-4 0  9996
2 29479  98.0595 118.4087 0018507 137.1776 223.0874 14.68529264 45058
SHIJIAN-6 02A (SJ-6 02A)
1 29505U 06046A   26101.51682631  .00008780  00000+0  45761-3 0  9997
2 29505  97.6441 142.0988 0003599  37.2397 322.9084 15.16216229 62161
SHIJIAN-6 02B (SJ-6 02B)
1 29506U 06046B   26101.49474889  .00002215  00000+0  17735-3 0  9996
2 29506  97.7121 130.9818 0011698 294.5747  65.4258 15.01167256 60734
FGRST (GLAST)           
1 33053U 08029A   26101.23612095  .00003007  00000+0  10845-3 0  9991
2 33053  25.5830 309.2258 0007740 256.3613 103.6063 15.23590127985615
SDO                     
1 36395U 10005A   26097.45151846 -.00000057  00000+0  00000+0 0  9991
2 36395  34.5041  87.4091 0000510  19.8579 149.2373  1.00274214 59351
CRYOSAT 2               
1 36508U 10013A   26101.50470557  .00000185  00000+0  45284-4 0  9990
2 36508  92.0266 261.1256 0002520  96.2184 263.9311 14.51901835848407
X-SAT                   
1 37389U 11015C   26101.52988406  .00000168  00000+0  89088-4 0  9991
2 37389  98.3474  81.7475 0013958 173.6694 186.4665 14.25186706778188
GCOM-W1 (SHIZUKU)       
1 38337U 12025A   26101.43348748  .00000444  00000+0  10861-3 0  9995
2 38337  98.2093  43.0131 0001113  80.8187  33.7671 14.57147025739313
NUSTAR                  
1 38358U 12031A   26101.58335647  .00014887  00000+0  87900-3 0  9999
2 38358   6.0254 173.4804 0008732 202.7501  84.3395 15.08165089  2243
NEOSSAT                 
1 39089U 13009D   26101.44934781  .00000141  00000+0  63421-4 0  9997
2 39089  98.4164 283.0721 0012212  86.2313 274.0270 14.35802777687161
BRITE-AUSTRIA           
1 39091U 13009F   26101.48108689  .00000159  00000+0  68604-4 0  9991
2 39091  98.3980 282.5717 0011376  80.9060 279.3413 14.36515367687476
IRIS                    
1 39197U 13033A   26101.42665194  .00000968  00000+0  11727-3 0  9999
2 39197  97.9381 300.9008 0024569 174.2238 185.9265 14.85747977690461
HISAKI (SPRINT-A)       
1 39253U 13049A   26101.54999250  .00000127  00000+0  80749-4 0  9993
2 39253  29.7189 198.7960 0136501 196.6568 162.9488 13.55535851622376
CASSIOPE                
1 39265U 13055A   26101.53358339  .00027277 -36321-6  32221-3 0  9998
2 39265  80.9162 147.3805 0304983 286.1882  70.5987 15.21166810657525
STSAT-3                 
1 39422U 13066G   26101.51752745  .00002694  00000+0  20793-3 0  9996
2 39422  97.6173  72.5367 0008196 253.4053 106.6273 15.02383386674192
SWARM B                 
1 39451U 13067A   26101.47959378  .00003056  00000+0  11010-3 0  9990
2 39451  87.7496   2.5619 0002622  79.6159 280.5385 15.28166955673057
SWARM A                 
1 39452U 13067B   26101.47349588  .00010438  00000+0  18831-3 0  9997
2 39452  87.3293  80.9966 0003640  94.5749 265.5927 15.49587164695912
SWARM C                 
1 39453U 13067C   26101.47343435  .00010709  00000+0  19322-3 0  9990
2 39453  87.3292  79.5777 0003655  95.0497 265.1181 15.49586020695871
BRITE-CA1 (TORONTO)     
1 40020U 14033L   26101.31421899  .00001050  00000+0  16489-3 0  9990
2 40020  97.9629 231.5201 0079854 130.4762 230.3442 14.72571931632379
OCO 2                   
1 40059U 14035A   26101.47705684  .00000381  00000+0  94434-4 0  9991
2 40059  98.1971  43.8045 0001626  87.5933 272.5451 14.57134968626333
BRITE-PL2 (HEWELIUSZ)   
1 40119U 14049B   26101.28439362  .00001014  00000+0  99678-4 0  9998
2 40119  97.9008 212.8116 0013412 336.7294  23.3317 14.94352461631453
MMS 1                   
1 40482U 15011A   26101.58335647 -.00001082  00000+0  00000+0 0  9997
2 40482  71.1600 349.7292 8389495 165.8999 345.0097  0.28115859  1316
MMS 2                   
1 40483U 15011B   26101.58335647 -.00001083  00000+0  00000+0 0  9999
2 40483  71.1602 349.7314 8390252 165.9057 344.9951  0.28115542  1319
MMS 3                   
1 40484U 15011C   26101.58335647 -.00001083  00000+0  00000+0 0  9990
2 40484  71.1627 349.7359 8389392 165.9036 344.9982  0.28116651  1312
MMS 4                   
1 40485U 15011D   26101.58335647 -.00001083  00000+0  00000+0 0  9991
2 40485  71.1602 349.7312 8388929 165.9110 344.9852  0.28116664  1313
ASTROSAT                
1 40930U 15052A   26098.39318762  .00001881  00000+0  14763-3 0  9994
2 40930   5.9974 297.6975 0007381 120.2801 239.8057 14.82383411569458
DAMPE                   
1 41173U 15078A   26101.48918443  .00001191  00000+0  42831-4 0  9991
2 41173  97.4587 106.6329 0010947 320.1625  39.8811 15.30619857574343
PISAT                   
1 41784U 16059B   26101.45626568  .00000924  00000+0  16505-3 0  9991
2 41784  97.8192 104.7817 0030378  60.3521 300.0704 14.68861539509940
HXMT (HUIYAN)           
1 42758U 17034A   26101.55279162  .00004297  00000+0  21736-3 0  9991
2 42758  43.0136 193.9065 0030302  82.1276 278.3010 15.17907496487539
FLYING LAPTOP           
1 42831U 17042G   26101.51814347  .00002690  00000+0  21588-3 0  9998
2 42831  97.4390 259.7580 0019294 352.6269   7.4669 15.00743384476459
ZHANGHENG 1-01 (CSES-1) 
1 43194U 18015C   26101.55320096  .00006969  00000+0  31530-3 0  9990
2 43194  97.6809 265.9080 0018952 125.3557 234.9452 15.21081638454518
SALSAT                  
1 46495U 20068K   26101.47097471  .00007398  00000+0  26658-3 0  9999
2 46495  97.8867 100.5273 0010330 166.3572 193.7947 15.28835172305167
IXPE                    
1 49954U 21121A   26101.50002315  .00011524  00000+0  63893-3 0  9998
2 49954   0.2300 101.0911 0007530 153.5368 259.1436 15.09641199  5928
